SCD 1                   
1 22490U 93009B   22198.54142832  .00000391  00000+0  58218-4 0  9999
2 22490  24.9710  30.5442 0043068 133.5075 257.4856 14.44701800553914
TECHSAT 1B (GO-32)      
1 25397U 98043D   22198.43666902  .00000054  00000+0  43390-4 0  9999
2 25397  98.8190 148.9868 0002034  51.5420 308.5941 14.23761836247692
SCD 2                   
1 25504U 98060A   22198.51860539  .00000319  00000+0  39503-4 0  9994
2 25504  24.9945 245.5561 0017324 140.0339   3.5505 14.44214288253552
LANDSAT 7               
1 25682U 99020A   22198.52201759  .00000274  00000+0  66658-4 0  9993
2 25682  97.9771 245.4558 0001547  71.7835 288.3544 14.59771388236958
DLR-TUBSAT              
1 25757U 99029B   22198.46386749  .00000076  00000+0  30586-4 0  9992
2 25757  98.4888 141.3227 0015055  31.7059 328.5039 14.51506784225633
TERRA                   
1 25994U 99068A   22198.49288417  .00000281  00000+0  72266-4 0  9993
2 25994  98.1360 269.7231 0001401 100.0250  15.6752 14.57159478200999
MAROC-TUBSAT            
1 27004U 01056D   22198.40552215 -.00000025  00000+0  23374-4 0  9991
2 27004  99.6299 338.7924 0019389 213.4460 215.4497 13.70158402 30247
AQUA                    
1 27424U 02022A   22198.58764373  .00000541  00000+0  12963-3 0  9993
2 27424  98.2481 140.1946 0001794  96.8403  76.1667 14.57330331 74610
IRS-P6 (RESOURCESAT-1)  
1 28051U 03046A   22198.52359355  .00000098  00000+0  49498-4 0  9992
2 28051  98.4035 268.6608 0057447 288.8661  70.6308 14.34216129975333
SHIYAN 1 (SY-1)         
1 28220U 04012A   22198.51431584  .00002750  00000+0  21437-3 0  9997
2 28220  97.9805 191.4888 0010708 222.3944 137.6453 15.02041327994584
AURA                    
1 28376U 04026A   22198.57341485  .00000537  00000+0  12918-3 0  9995
2 28376  98.2099 141.4770 0001566  83.6031 276.5346 14.57127872957613
IRS-P5 (CARTOSAT-1)     
1 28649U 05017A   22198.42163342  .00000819  00000+0  10409-3 0  9993
2 28649  97.7173 257.8484 0002854 103.1380 257.0153 14.84192527931186
SINAH 1                 
1 28893U 05043D   22198.58019773  .00000246  00000+0  58618-4 0  9997
2 28893  98.1155 321.6112 0016498  79.7371 280.5690 14.61720307891356
EROS B                  
1 29079U 06014A   22198.36574087  .00012123  00000+0  49214-3 0  9991
2 29079  97.3870 318.6798 0004370 178.2284 267.3611 15.24729964900937
RESURS-DK 1             
1 29228U 06021A   22198.56045299  .00000962  00000+0  77993-4 0  9999
2 29228  69.9356  52.2859 0004552 336.2161  23.8789 15.03298581886902
ARIRANG-2 (KOMPSAT-2)   
1 29268U 06031A   22198.40467845  .00000403  00000+0  88662-4 0  9997
2 29268  97.8855  66.0780 0015200 277.1428  82.8037 14.62331776852279
LAPAN-TUBSAT            
1 29709U 07001A   22198.52338332  .00000354  00000+0  50721-4 0  9996
2 29709  97.9681 161.0884 0013241 153.0211 207.1684 14.82515009838968
CARTOSAT-2 (IRS-P7)     
1 29710U 07001B   22198.57186508  .00010890  00000+0  26942-3 0  9992
2 29710  97.8685 305.8037 0147719 312.0934  46.7820 15.30085457840840
HAIYANG-1B              
1 31113U 07010A   22198.49189578  .00000054  00000+0  36826-4 0  9997
2 31113  98.3177 222.2880 0014926 121.1391 239.1258 14.30323676796063
COSMO-SKYMED 1          
1 31598U 07023A   22198.44402291  .00000148  00000+0  25163-4 0  9999
2 31598  97.8885  21.6737 0001358  93.9010 266.2363 14.82157849817405
TERRASAR-X              
1 31698U 07026A   22198.35589186 -.00000160  00000+0 -44431-5 0  9998
2 31698  97.4447 205.5291 0001692  70.4611  42.5044 15.19149258836657
WORLDVIEW-1 (WV-1)      
1 32060U 07041A   22198.60164436  .00005369  00000+0  21940-3 0  9996
2 32060  97.3934 317.5928 0004907  55.5730 304.5971 15.24782670824980
YAOGAN 3                
1 32289U 07055A   22198.39116562  .00001204  00000+0  16066-3 0  9994
2 32289  97.9459 220.0551 0001757  86.1550 273.9863 14.81417006793479
COSMO-SKYMED 2          
1 32376U 07059A   22198.47776198 -.00000131  00000+0 -98599-5 0  9994
2 32376  97.8883  21.7064 0001375  97.2506 262.8948 14.82157237790152
RADARSAT-2              
1 32382U 07061A   22198.43832844  .00000071  00000+0  44300-4 0  9992
2 32382  98.5754 204.9379 0001196  91.9391  33.3650 14.29984367761581
CARTOSAT-2A             
1 32783U 08021A   22198.46479461  .00000611  00000+0  90306-4 0  9996
2 32783  97.9639 258.3914 0014069  74.4145 285.8628 14.78674456767455
HUANJING 1A (HJ-1A)     
1 33320U 08041A   22198.34683656  .00000428  00000+0  66109-4 0  9996
2 33320  97.6753 230.0018 0022010 131.8356 228.4746 14.77871106746806
HUANJING 1B (HJ-1B)     
1 33321U 08041B   22198.36279193  .00000845  00000+0  12341-3 0  9997
2 33321  97.6932 233.6424 0034825 150.6342 209.6839 14.77782087746800
GEOEYE 1                
1 33331U 08042A   22198.42428681  .00000347  00000+0  74301-4 0  9996
2 33331  98.1116 272.9770 0009131 172.3595 187.7746 14.64538056740756
THEOS                   
1 33396U 08049A   22198.45941714  .00000236  00000+0  13164-3 0  9990
2 33396  98.7478 265.8606 0001236 107.3755  13.9473 14.20003597714923
COSMO-SKYMED 3          
1 33412U 08054A   22198.41777310  .00000570  00000+0  62056-4 0  9996
2 33412  97.8897  22.2109 0017925  24.0748 336.1308 14.91864768742649
YAOGAN 4                
1 33446U 08061A   22198.44910572  .00000571  00000+0  87083-4 0  9991
2 33446  97.8177 137.6670 0017220  41.0920 319.1584 14.77408155734028
GOSAT (IBUKI)           
1 33492U 09002A   22198.55250111  .00000558  00000+0  10691-3 0  9991
2 33492  98.1182 310.9894 0001372 107.4462 252.6892 14.67524612721634
YAOGAN 6                
1 34839U 09021A   22198.49027469  .00004233  00000+0  14789-3 0  9995
2 34839  97.0834 177.2618 0025762 185.7905 174.3042 15.29765439735826
DEIMOS-1                
1 35681U 09041A   22198.37247040  .00000313  00000+0  57147-4 0  9990
2 35681  97.7118  47.9105 0002703 108.5786 251.5714 14.72073824696173
DUBAISAT-1              
1 35682U 09041B   22198.40541027  .00000639  00000+0  11621-3 0  9994
2 35682  97.8066 350.3256 0010826 342.1740  17.9104 14.69222086694689
OCEANSAT-2              
1 35931U 09051A   22198.35688229 -.00043596  00000+0 -14390-1 0  9997
2 35931  98.2989 292.0811 0005187  71.4553 288.7222 14.38360459678507
WORLDVIEW-2 (WV-2)      
1 35946U 09055A   22198.48031390  .00000121  00000+0  54645-4 0  9997
2 35946  98.4866 273.2492 0000235 140.4230 219.6983 14.37677923670227
SMOS                    
1 36036U 09059A   22198.47077984  .00000182  00000+0  71812-4 0  9992
2 36036  98.4437  25.5556 0001361  88.3674 271.7670 14.39760423667581
YAOGAN 7                
1 36110U 09069A   22198.38488829  .00001659  00000+0  25251-3 0  9995
2 36110  98.1971  58.4818 0024326 314.3225  45.5944 14.75182772678555
TANDEM-X                
1 36605U 10030A   22197.95678071  .00000042  00000+0  51896-5 0  9997
2 36605  97.4453 205.1351 0001667  71.5376  20.0992 15.19150426669344
CARTOSAT-2B             
1 36795U 10035A   22198.43511143  .00000556  00000+0  82845-4 0  9999
2 36795  97.9589 258.4869 0014592 142.8987 217.3236 14.78664001648493
YAOGAN 10               
1 36834U 10038A   22198.39629165  .00000444  00000+0  63733-4 0  9996
2 36834  97.9748 209.0776 0001644  79.3152 280.8251 14.81298171645219
COSMO-SKYMED 4          
1 37216U 10060A   22198.55792665  .00000325  00000+0  47429-4 0  9992
2 37216  97.8890  21.7877 0001354  80.0571 280.0809 14.82161251632715
RESOURCESAT-2           
1 37387U 11015A   22198.46359183  .00000084  00000+0  57897-4 0  9998
2 37387  98.6617 270.4060 0004085   1.6976 358.4222 14.21655229583427
HAIYANG-2A              
1 37781U 11043A   22198.48141996 -.00000012  00000+0  31078-4 0  9995
2 37781  99.3163 203.8149 0001599 106.6211 253.5116 13.78741752549520
RASAT                   
1 37791U 11044D   22198.42348922  .00000307  00000+0  65950-4 0  9991
2 37791  98.0969 290.9507 0022683  38.5709 321.7110 14.65036163583506
MEGHA-TROPIQUES         
1 37838U 11058A   22198.44585999  .00000355  00000+0  51225-4 0  9990
2 37838  19.9779 106.2966 0010327 244.7944 115.1389 14.09665721555341
SRMSAT                  
1 37841U 11058D   22198.34196383  .00000367  00000+0  56294-4 0  9992
2 37841  19.9730  74.2500 0011757 312.4695 203.1226 14.10760991555462
YAOGAN 13               
1 37941U 11072A   22198.47384130  .00006164  00000+0  27714-3 0  9997
2 37941  97.6339 149.0209 0000909   8.0323 131.0434 15.21500468589361
PLEIADES 1A             
1 38012U 11076F   22198.49656795  .00000212  00000+0  55421-4 0  9997
2 38012  98.1993 273.0638 0001086  84.1723 275.9601 14.58559471563456
ZIYUAN 1-02C (ZY 1-02C) 
1 38038U 11079A   22198.61407682  .00000166  00000+0  73288-4 0  9990
2 38038  98.5878 263.0972 0007065 164.6262 195.5142 14.35327461553818
ZIYUAN 3-1 (ZY 3-1)     
1 38046U 12001A   22198.29299508  .00004315  00000+0  19622-3 0  9996
2 38046  97.3392 268.4741 0001805  26.1661  59.7739 15.21254316584146
ARIRANG-3 (KOMPSAT-3)   
1 38338U 12025B   22198.35630626  .00000320  00000+0  73523-4 0  9996
2 38338  98.1816 138.1640 0009594 283.8280  76.1857 14.61879646542345
KANOPUS-V 1             
1 38707U 12039A   22198.36916694  .00005528  00000+0  24288-3 0  9992
2 38707  97.4701 120.2568 0001818  82.2619  65.4261 15.22321424553941
EXACTVIEW-1 (ADS-1B)    
1 38709U 12039C   22198.41665059  .00000055  00000+0  44181-4 0  9991
2 38709  99.0081 265.6430 0010481 337.6803  22.3917 14.24109605519007
SPOT 6                  
1 38755U 12047A   22198.51087126  .00000233  00000+0  59833-4 0  9993
2 38755  98.1547 264.9517 0001092  87.1562 272.9769 14.58572226524532
PLEIADES 1B             
1 39019U 12068A   22198.39344775  .00000217  00000+0  56567-4 0  9995
2 39019  98.1950 272.9344 0001322  88.5748 271.5614 14.58547715512297
GOKTURK 2               
1 39030U 12073A   22198.60051632  .00000304  00000+0  54917-4 0  9999
2 39030  97.8525  76.6395 0000507 107.4880 252.6396 14.72884607513794
LANDSAT 8               
1 39084U 13008A   22198.50185553 -.00000037  00000+0  18237-5 0  9996
2 39084  98.2215 268.4465 0001329  91.9650 268.1701 14.57094554501378
